ONEWEB-0156             
1 48052U 21025L   23300.54786826 -.00000231  00000+0 -66691-3 0  9991
2 48052  87.8935 151.9674 0001631  82.2494 277.8820 13.13471205127072
ONEWEB-0161             
1 48053U 21025M   23300.59654167  .00000233  00000+0  60363-3 0  9999
2 48053  87.9004 151.9660 0001428  85.5823 274.5470 13.13468394127016
ONEWEB-0158             
1 48054U 21025N   23300.56058788 -.00000037  00000+0 -13514-3 0  9994
2 48054  87.8930 151.9696 0001810  76.7625 283.3706 13.13472311127137
ONEWEB-0157             
1 48055U 21025P   23300.58385047  .00000388  00000+0  10289-2 0  9990
2 48055  87.9012 151.9756 0001523  88.7993 271.3310 13.13469030127074
ONEWEB-0162             
1 48056U 21025Q   23300.54575453 -.00000351  00000+0 -99617-3 0  9994
2 48056  87.9011 151.9810 0001662  82.4043 277.7275 13.13470361127042
ONEWEB-0155             
1 48057U 21025R   23300.87162417 -.00001105  00000+0 -30611-2 0  9999
2 48057  87.9006 151.9233 0002235  87.2835 272.8550 13.13479052127234
ONEWEB-0149             
1 48058U 21025S   23300.51190165 -.00000156  00000+0 -46174-3 0  9999
2 48058  87.9006 151.9922 0002016  80.8174 279.3183 13.13473092126985
ONEWEB-0148             
1 48059U 21025T   23300.55210703 -.00003247  00000+0 -89286-2 0  9999
2 48059  87.9007 151.9908 0001843 101.0826 259.0511 13.13484439127111
